{
  "type": "FeatureCollection",
  "features": [
    {
      "type": "Feature",
      "properties": {
        "norad_id": 31018,
        "name": "FENGYUN 1C DEB",
        "group": "fengyun-1c-debris",
        "lat": -50.25200730787766,
        "lon": 77.93633476857042,
        "alt_km": 884.388957285224,
        "timestamp": "2025-12-06T05:40:09.522632+00:00",
        "meta_object_name": "FENGYUN 1C DEB",
        "meta_object_id": "1999-025BDL",
        "meta_epoch": "2025-12-05T04:29:24.445536",
        "meta_mean_motion": 14.16840133,
        "meta_eccentricity": 0.00596209,
        "meta_inclination": 99.0282,
        "meta_ra_of_asc_node": 65.8504,
        "meta_arg_of_pericenter": 146.9358,
        "meta_mean_anomaly": 213.5565,
        "meta_ephemeris_type": 0,
        "meta_classification_type": "U",
        "meta_norad_cat_id": 31018,
        "meta_element_set_no": 999,
        "meta_rev_at_epoch": 95948,
        "meta_bstar": 0.0036081808,
        "meta_mean_motion_dot": 7.317e-05,
        "meta_mean_motion_ddot": 0,
        "tle_line1": "1 31018U 99025BDL 25339.18708849  .00007317  00000+0  36082-2 0  9993",
        "tle_line2": "2 31018  99.0282  65.8504 0059620 146.9358 213.5565 14.16840133959484"
      },
      "geometry": {
        "type": "Point",
        "coordinates": [
          77.93633476857042,
          -50.25200730787766
        ]
      }
    },
    {
      "type": "Feature",
      "properties": {
        "norad_id": 31019,
        "name": "FENGYUN 1C DEB",
        "group": "fengyun-1c-debris",
        "lat": 42.85765121111784,
        "lon": 172.2203392884443,
        "alt_km": 1933.877824479615,
        "timestamp": "2025-12-06T05:40:09.522643+00:00",
        "meta_object_name": "FENGYUN 1C DEB",
        "meta_object_id": "1999-025BDM",
        "meta_epoch": "2025-12-01T11:54:56.953728",
        "meta_mean_motion": 11.82937409,
        "meta_eccentricity": 0.11191603,
        "meta_inclination": 98.7033,
        "meta_ra_of_asc_node": 177.2685,
        "meta_arg_of_pericenter": 305.0923,
        "meta_mean_anomaly": 70.4876,
        "meta_ephemeris_type": 0,
        "meta_classification_type": "U",
        "meta_norad_cat_id": 31019,
        "meta_element_set_no": 999,
        "meta_rev_at_epoch": 55048,
        "meta_bstar": 0.0036567783,
        "meta_mean_motion_dot": 1.347e-05,
        "meta_mean_motion_ddot": 0,
        "tle_line1": "1 31019U 99025BDM 25335.49649252  .00001347  00000+0  36568-2 0  9992",
        "tle_line2": "2 31019  98.7033 177.2685 1119160 305.0923  70.4876 11.82937409550481"
      },
      "geometry": {
        "type": "Point",
        "coordinates": [
          172.2203392884443,
          42.85765121111784
        ]
      }
    },
    {
      "type": "Feature",
      "properties": {
        "norad_id": 31021,
        "name": "FENGYUN 1C DEB",
        "group": "fengyun-1c-debris",
        "lat": 8.965666034316639,
        "lon": -88.17952734421546,
        "alt_km": 648.3686906156063,
        "timestamp": "2025-12-06T05:40:09.522653+00:00",
        "meta_object_name": "FENGYUN 1C DEB",
        "meta_object_id": "1999-025BDP",
        "meta_epoch": "2025-11-23T02:39:04.527648",
        "meta_mean_motion": 14.74941254,
        "meta_eccentricity": 0.0268991,
        "meta_inclination": 98.348,
        "meta_ra_of_asc_node": 76.9426,
        "meta_arg_of_pericenter": 304.648,
        "meta_mean_anomaly": 52.9635,
        "meta_ephemeris_type": 0,
        "meta_classification_type": "U",
        "meta_norad_cat_id": 31021,
        "meta_element_set_no": 999,
        "meta_rev_at_epoch": 73143,
        "meta_bstar": 0.00041319973,
        "meta_mean_motion_dot": 4.94e-05,
        "meta_mean_motion_ddot": 0,
        "tle_line1": "1 31021U 99025BDP 25327.11046907  .00004940  00000+0  41320-3 0  9998",
        "tle_line2": "2 31021  98.3480  76.9426 0268991 304.6480  52.9635 14.74941254731434"
      },
      "geometry": {
        "type": "Point",
        "coordinates": [
          -88.17952734421546,
          8.965666034316639
        ]
      }
    },
    {
      "type": "Feature",
      "properties": {
        "norad_id": 31022,
        "name": "FENGYUN 1C DEB",
        "group": "fengyun-1c-debris",
        "lat": -65.49642381427988,
        "lon": 22.143601861975426,
        "alt_km": 958.2203420688202,
        "timestamp": "2025-12-06T05:40:09.522684+00:00",
        "meta_object_name": "FENGYUN 1C DEB",
        "meta_object_id": "1999-025BDQ",
        "meta_epoch": "2025-11-29T22:14:32.342208",
        "meta_mean_motion": 13.9042789,
        "meta_eccentricity": 0.01095005,
        "meta_inclination": 99.5166,
        "meta_ra_of_asc_node": 217.2812,
        "meta_arg_of_pericenter": 156.1231,
        "meta_mean_anomaly": 204.506,
        "meta_ephemeris_type": 0,
        "meta_classification_type": "U",
        "meta_norad_cat_id": 31022,
        "meta_element_set_no": 999,
        "meta_rev_at_epoch": 61830,
        "meta_bstar": 0.00039044901,
        "meta_mean_motion_dot": 4.63e-06,
        "meta_mean_motion_ddot": 0,
        "tle_line1": "1 31022U 99025BDQ 25333.92676322  .00000463  00000+0  39045-3 0  9992",
        "tle_line2": "2 31022  99.5166 217.2812 0109500 156.1231 204.5060 13.90427890618301"
      },
      "geometry": {
        "type": "Point",
        "coordinates": [
          22.143601861975426,
          -65.49642381427988
        ]
      }
    },
    {
      "type": "Feature",
      "properties": {
        "norad_id": 31024,
        "name": "FENGYUN 1C DEB",
        "group": "fengyun-1c-debris",
        "lat": 47.94048941931472,
        "lon": 83.58884023946517,
        "alt_km": 765.4610187006338,
        "timestamp": "2025-12-06T05:40:09.522695+00:00",
        "meta_object_name": "FENGYUN 1C DEB",
        "meta_object_id": "1999-025BDS",
        "meta_epoch": "2025-12-04T00:39:46.080288",
        "meta_mean_motion": 14.20842939,
        "meta_eccentricity": 0.0074749,
        "meta_inclination": 99.0411,
        "meta_ra_of_asc_node": 251.1662,
        "meta_arg_of_pericenter": 149.3776,
        "meta_mean_anomaly": 211.1795,
        "meta_ephemeris_type": 0,
        "meta_classification_type": "U",
        "meta_norad_cat_id": 31024,
        "meta_element_set_no": 999,
        "meta_rev_at_epoch": 96580,
        "meta_bstar": 0.00047760152,
        "meta_mean_motion_dot": 1.016e-05,
        "meta_mean_motion_ddot": 0,
        "tle_line1": "1 31024U 99025BDS 25338.02761667  .00001016  00000+0  47760-3 0  9995",
        "tle_line2": "2 31024  99.0411 251.1662 0074749 149.3776 211.1795 14.20842939965803"
      },
      "geometry": {
        "type": "Point",
        "coordinates": [
          83.58884023946517,
          47.94048941931472
        ]
      }
    },
    {
      "type": "Feature",
      "properties": {
        "norad_id": 31025,
        "name": "FENGYUN 1C DEB",
        "group": "fengyun-1c-debris",
        "lat": -28.722534571181377,
        "lon": -24.63567035384414,
        "alt_km": 766.15144066823,
        "timestamp": "2025-12-06T05:40:09.522706+00:00",
        "meta_object_name": "FENGYUN 1C DEB",
        "meta_object_id": "1999-025BDT",
        "meta_epoch": "2025-12-03T05:06:44.299008",
        "meta_mean_motion": 14.20496018,
        "meta_eccentricity": 0.0173717,
        "meta_inclination": 98.5813,
        "meta_ra_of_asc_node": 327.6823,
        "meta_arg_of_pericenter": 40.2531,
        "meta_mean_anomaly": 321.1361,
        "meta_ephemeris_type": 0,
        "meta_classification_type": "U",
        "meta_norad_cat_id": 31025,
        "meta_element_set_no": 999,
        "meta_rev_at_epoch": 64230,
        "meta_bstar": 0.00089509,
        "meta_mean_motion_dot": 2.194e-05,
        "meta_mean_motion_ddot": 0,
        "tle_line1": "1 31025U 99025BDT 25337.21301272  .00002194  00000+0  89509-3 0  9993",
        "tle_line2": "2 31025  98.5813 327.6823 0173717  40.2531 321.1361 14.20496018642306"
      },
      "geometry": {
        "type": "Point",
        "coordinates": [
          -24.63567035384414,
          -28.722534571181377
        ]
      }
    },
    {
      "type": "Feature",
      "properties": {
        "norad_id": 31026,
        "name": "FENGYUN 1C DEB",
        "group": "fengyun-1c-debris",
        "lat": 54.77661791068268,
        "lon": 108.86591031885526,
        "alt_km": 921.653979773786,
        "timestamp": "2025-12-06T05:40:09.522716+00:00",
        "meta_object_name": "FENGYUN 1C DEB",
        "meta_object_id": "1999-025BDU",
        "meta_epoch": "2025-12-05T01:35:45.256128",
        "meta_mean_motion": 13.83394505,
        "meta_eccentricity": 0.0133948,
        "meta_inclination": 98.777,
        "meta_ra_of_asc_node": 275.1346,
        "meta_arg_of_pericenter": 203.3688,
        "meta_mean_anomaly": 219.9797,
        "meta_ephemeris_type": 0,
        "meta_classification_type": "U",
        "meta_norad_cat_id": 31026,
        "meta_element_set_no": 999,
        "meta_rev_at_epoch": 67920,
        "meta_bstar": 0.00027046412,
        "meta_mean_motion_dot": 2.78e-06,
        "meta_mean_motion_ddot": 0,
        "tle_line1": "1 31026U 99025BDU 25339.06649602  .00000278  00000+0  27046-3 0  9990",
        "tle_line2": "2 31026  98.7770 275.1346 0133948 203.3688 219.9797 13.83394505679207"
      },
      "geometry": {
        "type": "Point",
        "coordinates": [
          108.86591031885526,
          54.77661791068268
        ]
      }
    }
  ]
}